{
  "type": "FeatureCollection",
  "features": [
    {
      "type": "Feature",
      "properties": {
        "norad_id": 37836,
        "name": "EUTELSAT 16A",
        "group": "eutelsat",
        "lat": 0.03913444108032681,
        "lon": 144.31954132904494,
        "alt_km": 35802.95108992214,
        "timestamp": "2025-12-27T02:10:15.859252+00:00",
        "meta_object_name": "EUTELSAT 16A",
        "meta_object_id": "2011-057A",
        "meta_epoch": "2025-12-26T18:14:45.695040",
        "meta_mean_motion": 1.00271816,
        "meta_eccentricity": 0.0005829,
        "meta_inclination": 0.0554,
        "meta_ra_of_asc_node": 353.4797,
        "meta_arg_of_pericenter": 284.1562,
        "meta_mean_anomaly": 107.5386,
        "meta_ephemeris_type": 0,
        "meta_classification_type": "U",
        "meta_norad_cat_id": 37836,
        "meta_element_set_no": 999,
        "meta_rev_at_epoch": 559,
        "meta_bstar": 0,
        "meta_mean_motion_dot": 1.26e-06,
        "meta_mean_motion_ddot": 0,
        "tle_line1": "1 37836U 11057A   25360.76025110  .00000126  00000+0  00000+0 0  9996",
        "tle_line2": "2 37836   0.0554 353.4797 0005829 284.1562 107.5386  1.00271816  5598"
      },
      "geometry": {
        "type": "Point",
        "coordinates": [
          144.31954132904494,
          0.03913444108032681
        ]
      }
    },
    {
      "type": "Feature",
      "properties": {
        "norad_id": 38992,
        "name": "EUTELSAT 21B",
        "group": "eutelsat",
        "lat": 0.03695218903516025,
        "lon": 149.9342091476998,
        "alt_km": 35795.13056873999,
        "timestamp": "2025-12-27T02:10:15.859264+00:00",
        "meta_object_name": "EUTELSAT 21B",
        "meta_object_id": "2012-062B",
        "meta_epoch": "2025-12-26T18:16:23.040192",
        "meta_mean_motion": 1.00271866,
        "meta_eccentricity": 0.0003236,
        "meta_inclination": 0.065,
        "meta_ra_of_asc_node": 353.6464,
        "meta_arg_of_pericenter": 288.0574,
        "meta_mean_anomaly": 109.471,
        "meta_ephemeris_type": 0,
        "meta_classification_type": "U",
        "meta_norad_cat_id": 38992,
        "meta_element_set_no": 999,
        "meta_rev_at_epoch": 4809,
        "meta_bstar": 0,
        "meta_mean_motion_dot": 1.52e-06,
        "meta_mean_motion_ddot": 0,
        "tle_line1": "1 38992U 12062B   25360.76137778  .00000152  00000+0  00000+0 0  9990",
        "tle_line2": "2 38992   0.0650 353.6464 0003236 288.0574 109.4710  1.00271866 48097"
      },
      "geometry": {
        "type": "Point",
        "coordinates": [
          149.9342091476998,
          0.03695218903516025
        ]
      }
    },
    {
      "type": "Feature",
      "properties": {
        "norad_id": 39020,
        "name": "EUTELSAT 70B",
        "group": "eutelsat",
        "lat": -0.033157172164344544,
        "lon": -161.1588101221405,
        "alt_km": 35776.63151345005,
        "timestamp": "2025-12-27T02:10:15.859276+00:00",
        "meta_object_name": "EUTELSAT 70B",
        "meta_object_id": "2012-069A",
        "meta_epoch": "2025-12-26T11:39:08.579808",
        "meta_mean_motion": 1.00272018,
        "meta_eccentricity": 0.0004141,
        "meta_inclination": 0.0613,
        "meta_ra_of_asc_node": 350.7293,
        "meta_arg_of_pericenter": 265.6164,
        "meta_mean_anomaly": 84.1659,
        "meta_ephemeris_type": 0,
        "meta_classification_type": "U",
        "meta_norad_cat_id": 39020,
        "meta_element_set_no": 999,
        "meta_rev_at_epoch": 4777,
        "meta_bstar": 0,
        "meta_mean_motion_dot": -2.1e-07,
        "meta_mean_motion_ddot": 0,
        "tle_line1": "1 39020U 12069A   25360.48551597 -.00000021  00000+0  00000+0 0  9994",
        "tle_line2": "2 39020   0.0613 350.7293 0004141 265.6164  84.1659  1.00272018 47774"
      },
      "geometry": {
        "type": "Point",
        "coordinates": [
          -161.1588101221405,
          -0.033157172164344544
        ]
      }
    },
    {
      "type": "Feature",
      "properties": {
        "norad_id": 39122,
        "name": "EUTELSAT 117 WEST A",
        "group": "eutelsat",
        "lat": 0.013324813642759522,
        "lon": 11.61694800887401,
        "alt_km": 35786.845995780655,
        "timestamp": "2025-12-27T02:10:15.859288+00:00",
        "meta_object_name": "EUTELSAT 117 WEST A",
        "meta_object_id": "2013-012A",
        "meta_epoch": "2025-12-26T15:54:06.664032",
        "meta_mean_motion": 1.00270799,
        "meta_eccentricity": 0.0002852,
        "meta_inclination": 0.0154,
        "meta_ra_of_asc_node": 330.9469,
        "meta_arg_of_pericenter": 308.2848,
        "meta_mean_anomaly": 297.9012,
        "meta_ephemeris_type": 0,
        "meta_classification_type": "U",
        "meta_norad_cat_id": 39122,
        "meta_element_set_no": 999,
        "meta_rev_at_epoch": 4670,
        "meta_bstar": 0,
        "meta_mean_motion_dot": 9e-08,
        "meta_mean_motion_ddot": 0,
        "tle_line1": "1 39122U 13012A   25360.66257713  .00000009  00000+0  00000+0 0  9994",
        "tle_line2": "2 39122   0.0154 330.9469 0002852 308.2848 297.9012  1.00270799 46705"
      },
      "geometry": {
        "type": "Point",
        "coordinates": [
          11.61694800887401,
          0.013324813642759522
        ]
      }
    },
    {
      "type": "Feature",
      "properties": {
        "norad_id": 39163,
        "name": "EUTELSAT 7B",
        "group": "eutelsat",
        "lat": 0.07115690650464357,
        "lon": 135.385158949749,
        "alt_km": 35805.76324237441,
        "timestamp": "2025-12-27T02:10:15.859300+00:00",
        "meta_object_name": "EUTELSAT 7B",
        "meta_object_id": "2013-022A",
        "meta_epoch": "2025-12-26T08:51:38.739168",
        "meta_mean_motion": 1.00271815,
        "meta_eccentricity": 0.0004718,
        "meta_inclination": 0.0666,
        "meta_ra_of_asc_node": 12.0633,
        "meta_arg_of_pericenter": 310.169,
        "meta_mean_anomaly": 272.7878,
        "meta_ephemeris_type": 0,
        "meta_classification_type": "U",
        "meta_norad_cat_id": 39163,
        "meta_element_set_no": 999,
        "meta_rev_at_epoch": 4621,
        "meta_bstar": 0,
        "meta_mean_motion_dot": 7e-07,
        "meta_mean_motion_ddot": 0,
        "tle_line1": "1 39163U 13022A   25360.36919837  .00000070  00000+0  00000+0 0  9997",
        "tle_line2": "2 39163   0.0666  12.0633 0004718 310.1690 272.7878  1.00271815 46216"
      },
      "geometry": {
        "type": "Point",
        "coordinates": [
          135.385158949749,
          0.07115690650464357
        ]
      }
    },
    {
      "type": "Feature",
      "properties": {
        "norad_id": 39612,
        "name": "EXPRESS-AT1",
        "group": "eutelsat",
        "lat": -0.009046895562226091,
        "lon": -175.58353254995455,
        "alt_km": 35780.582434305186,
        "timestamp": "2025-12-27T02:10:15.859329+00:00",
        "meta_object_name": "EXPRESS-AT1",
        "meta_object_id": "2014-010A",
        "meta_epoch": "2025-12-26T04:01:38.790048",
        "meta_mean_motion": 1.00275867,
        "meta_eccentricity": 0.0001356,
        "meta_inclination": 0.0174,
        "meta_ra_of_asc_node": 279.8877,
        "meta_arg_of_pericenter": 223.1198,
        "meta_mean_anomaly": 68.3278,
        "meta_ephemeris_type": 0,
        "meta_classification_type": "U",
        "meta_norad_cat_id": 39612,
        "meta_element_set_no": 999,
        "meta_rev_at_epoch": 4308,
        "meta_bstar": 0,
        "meta_mean_motion_dot": 1e-06,
        "meta_mean_motion_ddot": 0,
        "tle_line1": "1 39612U 14010A   25360.16781007  .00000100  00000+0  00000+0 0  9992",
        "tle_line2": "2 39612   0.0174 279.8877 0001356 223.1198  68.3278  1.00275867 43089"
      },
      "geometry": {
        "type": "Point",
        "coordinates": [
          -175.58353254995455,
          -0.009046895562226091
        ]
      }
    },
    {
      "type": "Feature",
      "properties": {
        "norad_id": 39613,
        "name": "EXPRESS-AT2",
        "group": "eutelsat",
        "lat": -0.026892635964504166,
        "lon": -91.75755115847238,
        "alt_km": 35779.31123420751,
        "timestamp": "2025-12-27T02:10:15.859343+00:00",
        "meta_object_name": "EXPRESS-AT2",
        "meta_object_id": "2014-010B",
        "meta_epoch": "2025-12-26T17:10:15.663648",
        "meta_mean_motion": 1.00271075,
        "meta_eccentricity": 0.0001673,
        "meta_inclination": 0.0166,
        "meta_ra_of_asc_node": 319.7162,
        "meta_arg_of_pericenter": 316.3181,
        "meta_mean_anomaly": 216.8487,
        "meta_ephemeris_type": 0,
        "meta_classification_type": "U",
        "meta_norad_cat_id": 39613,
        "meta_element_set_no": 999,
        "meta_rev_at_epoch": 4277,
        "meta_bstar": 0,
        "meta_mean_motion_dot": -2.59e-06,
        "meta_mean_motion_ddot": 0,
        "tle_line1": "1 39613U 14010B   25360.71545907 -.00000259  00000+0  00000+0 0  9997",
        "tle_line2": "2 39613   0.0166 319.7162 0001673 316.3181 216.8487  1.00271075 42775"
      },
      "geometry": {
        "type": "Point",
        "coordinates": [
          -91.75755115847238,
          -0.026892635964504166
        ]
      }
    }
  ]
}